STARLINK-30494          
1 57970U 23151G   26068.36049035 -.00001272  00000+0 -35691-4 0  9993
2 57970  43.0027 192.4566 0001155 241.5536 118.5200 15.28417441137406
STARLINK-31188          
1 58804U 24012T   26068.29028085  .00000352  00000+0  22320-4 0  9992
2 58804  43.0029 167.6084 0001001 257.2675 102.8065 15.27570984121175
